NORAD_CAT_ID,OBJECT_NAME,OBJECT_TYPE,EPOCH,MEAN_MOTION,ECCENTRICITY,INCLINATION,RA_OF_ASC_NODE,ARG_OF_PERICENTER,MEAN_ANOMALY,BSTAR,MEAN_MOTION_DOT,MEAN_MOTION_DDOT,TLE_LINE0,TLE_LINE1,TLE_LINE2,SEMIMAJOR_AXIS,PERIOD,APOGEE,PERIGEE,DECAYED
51135.0,STARLINK-3363,PAYLOAD,2022-11-20 11:44:48,15.08840447,0.0002833,53.2161,309.4872,35.201,324.9169,2.846e-05,1.64e-06,0.0,0 STARLINK-3363,1 51135U 22005AH  22324.48945263  .00000164  00000-0  28460-4 0  9993,2 51135  53.2161 309.4872 0002833  35.2010 324.9169 15.08840447 46785,6917.879,95.438,541.7040000000002,537.784,0.0
51135.0,STARLINK-3363,PAYLOAD,2022-11-21 08:24:49,15.08838531,0.0002751,53.2163,305.6213,37.2611,322.8572,4.0576e-05,3.57e-06,0.0,0 STARLINK-3363,1 51135U 22005AH  22325.35057218  .00000357  00000-0  40576-4 0  9990,2 51135  53.2163 305.6213 0002751  37.2611 322.8572 15.08838531 46913,6917.885,95.438,541.653,537.847,0.0
51135.0,STARLINK-3363,PAYLOAD,2022-11-22 05:04:50,15.08834749,0.0002912,53.216,301.7561,30.3117,329.8043,-4.0368e-05,-9.31e-06,0.0,0 STARLINK-3363,1 51135U 22005AH  22326.21168991 -.00000931  00000-0 -40368-4 0  9996,2 51135  53.2160 301.7561 0002912  30.3117 329.8043 15.08834749 48163,6917.896,95.438,541.776,537.747,0.0
51135.0,STARLINK-3363,PAYLOAD,2022-11-22 08:15:36,15.08835575,0.0002954,53.2157,301.1618,31.051,329.0656,-2.736800000000001e-05,-7.24e-06,0.0,0 STARLINK-3363,1 51135U 22005AH  22326.34416925 -.00000724  00000-0 -27368-4 0  9998,2 51135  53.2157 301.1618 0002954  31.0510 329.0656 15.08835575 47065,6917.894,95.438,541.802,537.715,0.0
51135.0,STARLINK-3363,PAYLOAD,2022-11-23 09:41:46,15.08827364,0.0002941,53.2159,296.4032,30.6699,329.4464,-5.133e-05,-1.105e-05,0.0,0 STARLINK-3363,1 51135U 22005AH  22327.40401296 -.00001105  00000-0 -51330-4 0  9991,2 51135  53.2159 296.4032 0002941  30.6699 329.4464 15.08827364 48342,6917.919,95.438,541.819,537.749,0.0
51135.0,STARLINK-3363,PAYLOAD,2022-11-24 04:46:23,15.08843422,0.0002934,53.2158,292.8349,30.1508,329.9652,-5.1916e-05,-1.115e-05,0.0,0 STARLINK-3363,1 51135U 22005AH  22328.19888210 -.00001115  00000-0 -51916-4 0  9994,2 51135  53.2158 292.8349 0002934  30.1508 329.9652 15.08843422 48468,6917.87,95.437,541.765,537.705,0.0
51135.0,STARLINK-3363,PAYLOAD,2022-11-24 07:57:09,15.08844061,0.0002958,53.2158,292.2401,29.7103,330.4056,-4.6022e-05,-1.021e-05,0.0,0 STARLINK-3363,1 51135U 22005AH  22328.33136138 -.00001021  00000-0 -46022-4 0  9993,2 51135  53.2158 292.2401 0002958  29.7103 330.4056 15.08844061 47365,6917.868,95.437,541.779,537.687,0.0
51135.0,STARLINK-3363,PAYLOAD,2022-11-24 14:18:43,15.08827852,0.0003066,53.2157,291.051,30.3496,329.7673,1.9715e-05,2.5e-07,0.0,0 STARLINK-3363,1 51135U 22005AH  22328.59633202  .00000025  00000-0  19715-4 0  9995,2 51135  53.2157 291.0510 0003066  30.3496 329.7673 15.08827852 48520,6917.918000000002,95.438,541.904,537.661,0.0
51135.0,STARLINK-3363,PAYLOAD,2022-11-24 22:15:38,15.08836423,0.000306,53.2157,289.564,30.7594,329.3577,-8.7139e-05,-1.675e-05,0.0,0 STARLINK-3363,1 51135U 22005AH  22328.92753242 -.00001675  00000-0 -87139-4 0  9998,2 51135  53.2157 289.5640 0003060  30.7594 329.3577 15.08836423 47457,6917.891,95.438,541.873,537.639,0.0
51135.0,STARLINK-3363,PAYLOAD,2022-11-25 04:37:10,15.0885467,0.000303,53.2157,288.3746,29.6567,330.4597,-0.00026052,-4.435e-05,0.0,0 STARLINK-3363,1 51135U 22005AH  22329.19248801 -.00004435  00000-0 -26052-3 0  9991,2 51135  53.2157 288.3746 0003030  29.6567 330.4597 15.08854670 48613,6917.8359999999975,95.437,541.797,537.604,0.0
51135.0,STARLINK-3363,PAYLOAD,2022-11-25 06:12:34,15.08836747,0.000312,53.2157,288.0773,30.728,329.3895,1.1559e-06,-2.7000000000000004e-06,0.0,0 STARLINK-3363,1 51135U 22005AH  22329.25872999 -.00000270  00000-0  11559-5 0  9999,2 51135  53.2157 288.0773 0003120  30.7280 329.3895 15.08836747 48629,6917.89,95.438,541.914,537.597,0.0
51135.0,STARLINK-3363,PAYLOAD,2022-11-25 14:09:29,15.08835982,0.000311,53.2158,286.5905,30.4397,329.6775,0.00015958,2.252e-05,0.0,0 STARLINK-3363,1 51135U 22005AH  22329.58992738  .00002252  00000-0  15958-3 0  9995,2 51135  53.2158 286.5905 0003110  30.4397 329.6775 15.08835982 47556,6917.893,95.438,541.909,537.606,0.0
51135.0,STARLINK-3363,PAYLOAD,2022-11-26 06:03:21,15.08836608,0.0003013,53.2165,283.6174,37.2004,322.9197,6.04e-05,6.73e-06,0.0,0 STARLINK-3363,1 51135U 22005AH  22330.25233250  .00000673  00000-0  60400-4 0  9996,2 51135  53.2165 283.6174 0003013  37.2004 322.9197 15.08836608 47653,6917.891,95.438,541.84,537.6709999999998,0.0
51135.0,STARLINK-3363,PAYLOAD,2022-11-26 14:00:16,15.08846635,0.0002993,53.2161,282.13,33.9317,326.1866,0.00011121,1.482e-05,0.0,0 STARLINK-3363,1 51135U 22005AH  22330.58352417  .00001482  00000-0  11121-3 0  9993,2 51135  53.2161 282.1300 0002993  33.9317 326.1866 15.08846635 48820,6917.86,95.437,541.7959999999998,537.655,0.0
51135.0,STARLINK-3363,PAYLOAD,2022-11-27 07:29:32,15.0883035,0.0002959,53.2155,278.8585,30.2085,329.9078,-1.828e-05,-5.79e-06,0.0,0 STARLINK-3363,1 51135U 22005AH  22331.31217786 -.00000579  00000-0 -18280-4 0  9996,2 51135  53.2155 278.8585 0002959  30.2085 329.9078 15.08830350 48939,6917.91,95.438,541.822,537.7280000000002,0.0
51135.0,STARLINK-3363,PAYLOAD,2022-11-27 13:51:04,15.08833815,0.0002985,53.2153,277.6685,29.1571,330.9587,-2.5305e-05,-6.91e-06,0.0,0 STARLINK-3363,1 51135U 22005AH  22331.57713604 -.00000691  00000-0 -25305-4 0  9995,2 51135  53.2153 277.6685 0002985  29.1571 330.9587 15.08833815 47857,6917.899,95.438,541.8290000000002,537.6990000000002,0.0
51135.0,STARLINK-3363,PAYLOAD,2022-11-28 13:41:52,15.08835889,0.0003073,53.2158,273.2081,31.9192,328.1986,-1.9109e-05,-5.93e-06,0.0,0 STARLINK-3363,1 51135U 22005AH  22332.57074145 -.00000593  00000-0 -19109-4 0  9992,2 51135  53.2158 273.2081 0003073  31.9192 328.1986 15.08835889 49120,6917.893,95.438,541.884,537.632,0.0
51135.0,STARLINK-3363,PAYLOAD,2022-11-29 02:24:56,15.08842887,0.0003074,53.2158,270.8287,32.8553,327.2629,5.3534e-05,5.64e-06,0.0,0 STARLINK-3363,1 51135U 22005AH  22333.10065490  .00000564  00000-0  53534-4 0  9991,2 51135  53.2158 270.8287 0003074  32.8553 327.2629 15.08842887 49202,6917.871999999999,95.437,541.863,537.61,0.0
51135.0,STARLINK-3363,PAYLOAD,2022-11-29 05:35:42,15.08845067,0.0003093,53.2158,270.23400000000004,32.8596,327.2588,0.00010074,1.315e-05,0.0,0 STARLINK-3363,1 51135U 22005AH  22333.23313222  .00001315  00000-0  10074-3 0  9990,2 51135  53.2158 270.2340 0003093  32.8596 327.2588 15.08845067 48109,6917.865,95.437,541.87,537.59,0.0
51135.0,STARLINK-3363,PAYLOAD,2022-11-29 13:32:38,15.08841785,0.0003114,53.2158,268.7473,32.7837,327.3348,0.00017706,2.531e-05,0.0,0 STARLINK-3363,1 51135U 22005AH  22333.56433204  .00002531  00000-0  17706-3 0  9999,2 51135  53.2158 268.7473 0003114  32.7837 327.3348 15.08841785 48152,6917.875,95.437,541.894,537.586,0.0
51135.0,STARLINK-3363,PAYLOAD,2022-11-30 00:40:21,15.08829684,0.0003105,53.2161,266.6656,34.4044,325.7148,0.00011815,1.592e-05,0.0,0 STARLINK-3363,1 51135U 22005AH  22334.02802456  .00001592  00000-0  11815-3 0  9991,2 51135  53.2161 266.6656 0003105  34.4044 325.7148 15.08829684 49341,6917.9119999999975,95.438,541.925,537.629,0.0
51135.0,STARLINK-3363,PAYLOAD,2022-11-30 05:26:31,15.088262,0.0003138,53.2161,265.774,33.5069,326.6122,4.775e-05,4.71e-06,0.0,0 STARLINK-3363,1 51135U 22005AH  22334.22675017  .00000471  00000-0  47750-4 0  9997,2 51135  53.2161 265.7740 0003138  33.5069 326.6122 15.08826200 48250,6917.9230000000025,95.438,541.9580000000002,537.617,0.0
51135.0,STARLINK-3363,PAYLOAD,2022-11-30 22:55:45,15.08830941,0.0003174,53.2162,262.5032,35.169000000000004,324.9511,0.00012437,1.691e-05,0.0,0 STARLINK-3363,1 51135U 22005AH  22334.95538877  .00001691  00000-0  12437-3 0  9997,2 51135  53.2162 262.5032 0003174  35.1690 324.9511 15.08830941 48360,6917.908,95.438,541.969,537.577,0.0
51135.0,STARLINK-3363,PAYLOAD,2022-12-01 19:35:45,15.088381699999998,0.0003001,53.2151,258.6368,31.3048,328.8123,0.00010709,1.416e-05,0.0,0 STARLINK-3363,1 51135U 22005AH  22335.81650278  .00001416  00000-0  10709-3 0  9998,2 51135  53.2151 258.6368 0003001  31.3048 328.8123 15.08838170 49613,6917.886,95.438,541.827,537.675,0.0
51135.0,STARLINK-3363,PAYLOAD,2022-12-02 01:57:17,15.08847824,0.000307,53.2155,257.4482,33.0219,327.0964,0.0001905,2.745e-05,0.0,0 STARLINK-3363,1 51135U 22005AH  22336.08145455  .00002745  00000-0  19050-3 0  9998,2 51135  53.2155 257.4482 0003070  33.0219 327.0964 15.08847824 49650,6917.856,95.437,541.845,537.5980000000002,0.0
51135.0,STARLINK-3363,PAYLOAD,2022-12-02 11:29:36,15.08843546,0.0003626,53.2155,255.6599,22.5119,337.6032,0.00016032,2.264e-05,0.0,0 STARLINK-3363,1 51135U 22005AH  22336.47889822  .00002264  00000-0  16032-3 0  9997,2 51135  53.2155 255.6599 0003626  22.5119 337.6032 15.08843546 49715,6917.87,95.437,542.243,537.226,0.0
51135.0,STARLINK-3363,PAYLOAD,2022-12-02 17:51:09,15.08838483,0.0002968,53.2155,254.4753,36.7678,323.3518,8.1595e-05,1.01e-05,0.0,0 STARLINK-3363,1 51135U 22005AH  22336.74386362  .00001010  00000-0  81595-4 0  9993,2 51135  53.2155 254.4753 0002968  36.7678 323.3518 15.08838483 48634,6917.885,95.438,541.803,537.697,0.0
51135.0,STARLINK-3363,PAYLOAD,2022-12-03 04:58:52,15.08834325,0.0003206,53.216,252.3923,37.2709,322.8505,6.136600000000001e-05,6.88e-06,0.0,0 STARLINK-3363,1 51135U 22005AH  22337.20754840  .00000688  00000-0  61366-4 0  9999,2 51135  53.2160 252.3923 0003206  37.2709 322.8505 15.08834325 49826,6917.898,95.438,541.981,537.545,0.0
51135.0,STARLINK-3363,PAYLOAD,2022-12-03 11:20:23,15.08845008,0.0003181,53.2157,251.2029,34.3428,325.7769,0.00010177,1.332e-05,0.0,0 STARLINK-3363,1 51135U 22005AH  22337.47249959  .00001332  00000-0  10177-3 0  9998,2 51135  53.2157 251.2029 0003181  34.3428 325.7769 15.08845008 48749,6917.865,95.437,541.931,537.53,0.0
